{
    "links": {
        "self": "http://www.neowsapp.com/rest/v1/neo/3557532?api_key=iIulBulltgU6a56xZRHN4H3l9WmuAYTsLGpBGhQ2"
    },
    "id": "3557532",
    "neo_reference_id": "3557532",
    "name": "(2011 CG50)",
    "designation": "2011 CG50",
    "nasa_jpl_url": "http://ssd.jpl.nasa.gov/sbdb.cgi?sstr=3557532",
    "absolute_magnitude_h": 23.9,
    "estimated_diameter": {
        "kilometers": {
            "estimated_diameter_min": 0.04411182,
            "estimated_diameter_max": 0.0986370281
        },
        "meters": {
            "estimated_diameter_min": 44.1118199997,
            "estimated_diameter_max": 98.6370281305
        },
        "miles": {
            "estimated_diameter_min": 0.0274098057,
            "estimated_diameter_max": 0.0612901888
        },
        "feet": {
            "estimated_diameter_min": 144.7238235278,
            "estimated_diameter_max": 323.6123073718
        }
    },
    "is_potentially_hazardous_asteroid": false,
    "close_approach_data": [
        {
            "close_approach_date": "2011-02-05",
            "close_approach_date_full": "2011-Feb-05 06:29",
            "epoch_date_close_approach": 1296887340000,
            "relative_velocity": {
                "kilometers_per_second": "22.0906039464",
                "kilometers_per_hour": "79526.174207094",
                "miles_per_hour": "49414.4719677357"
            },
            "miss_distance": {
                "astronomical": "0.0506955032",
                "lunar": "19.7205507448",
                "kilometers": "7583939.297298184",
                "miles": "4712441.3605315792"
            },
            "orbiting_body": "Earth"
        }
    ],
    "orbital_data": {
        "orbit_id": "6",
        "orbit_determination_date": "2017-04-06 08:54:28",
        "first_observation_date": "2011-02-12",
        "last_observation_date": "2011-02-15",
        "data_arc_in_days": 3,
        "observations_used": 27,
        "orbit_uncertainty": "9",
        "minimum_orbit_intersection": ".0376118",
        "jupiter_tisserand_invariant": "3.871",
        "epoch_osculation": "2455605.5",
        "eccentricity": ".7036059920481803",
        "semi_major_axis": "1.68747068937113",
        "inclination": "13.37717650682875",
        "ascending_node_longitude": "146.4262098068956",
        "orbital_period": "800.6685759362981",
        "perihelion_distance": ".5001562009239294",
        "perihelion_argument": "249.0340686314749",
        "aphelion_distance": "2.874785177818331",
        "perihelion_time": "2455549.347776136435",
        "mean_anomaly": "25.2474009826654",
        "mean_motion": ".4496242400658945",
        "equinox": "J2000",
        "orbit_class": {
            "orbit_class_type": "APO",
            "orbit_class_description": "Near-Earth asteroid orbits which cross the Earth’s orbit similar to that of 1862 Apollo",
            "orbit_class_range": "a (semi-major axis) > 1.0 AU; q (perihelion) < 1.017 AU"
        }
    },
    "is_sentry_object": false
}